CCSDS_OMM_VERS = 2.0
CREATION_DATE  = 
ORIGINATOR     = 

OBJECT_NAME    = UNKNOWN
OBJECT_ID      = 
CENTER_NAME    = EARTH
REF_FRAME      = TEME
TIME_SYSTEM    = UTC
MEAN_ELEMENT_THEORY = SGP/SGP4

EPOCH          = 2026-03-06T03:18:41.913504
MEAN_MOTION    = 9.31972493
ECCENTRICITY   = .2552724
INCLINATION    = 66.0838
RA_OF_ASC_NODE = 341.7627
ARG_OF_PERICENTER = 145.7120
MEAN_ANOMALY   = 233.8673

EPHEMERIS_TYPE = 0
CLASSIFICATION_TYPE = U
NORAD_CAT_ID   = 81036
ELEMENT_SET_NO = 999
REV_AT_EPOCH   = 2950
BSTAR          = .23377E-1
MEAN_MOTION_DOT = .8663E-4
MEAN_MOTION_DDOT = 0

CCSDS_OMM_VERS = 2.0
CREATION_DATE  = 
ORIGINATOR     = 

OBJECT_NAME    = UNKNOWN
OBJECT_ID      = 
CENTER_NAME    = EARTH
REF_FRAME      = TEME
TIME_SYSTEM    = UTC
MEAN_ELEMENT_THEORY = SGP/SGP4

EPOCH          = 2026-03-05T17:03:29.003904
MEAN_MOTION    = 13.84140309
ECCENTRICITY   = .0562332
INCLINATION    = 65.7701
RA_OF_ASC_NODE = 179.5828
ARG_OF_PERICENTER = 267.9170
MEAN_ANOMALY   = 85.7441

EPHEMERIS_TYPE = 0
CLASSIFICATION_TYPE = U
NORAD_CAT_ID   = 81052
ELEMENT_SET_NO = 999
REV_AT_EPOCH   = 61179
BSTAR          = .23727E-2
MEAN_MOTION_DOT = .9174E-4
MEAN_MOTION_DDOT = 0

CCSDS_OMM_VERS = 2.0
CREATION_DATE  = 
ORIGINATOR     = 

OBJECT_NAME    = UNKNOWN
OBJECT_ID      = 
CENTER_NAME    = EARTH
REF_FRAME      = TEME
TIME_SYSTEM    = UTC
MEAN_ELEMENT_THEORY = SGP/SGP4

EPOCH          = 2026-03-01T05:07:33.540960
MEAN_MOTION    = 13.61107376
ECCENTRICITY   = .0061934
INCLINATION    = 100.3842
RA_OF_ASC_NODE = 331.1182
ARG_OF_PERICENTER = 212.0506
MEAN_ANOMALY   = 147.6859

EPHEMERIS_TYPE = 0
CLASSIFICATION_TYPE = U
NORAD_CAT_ID   = 81069
ELEMENT_SET_NO = 999
REV_AT_EPOCH   = 52660
BSTAR          = .43876E-2
MEAN_MOTION_DOT = .3327E-4
MEAN_MOTION_DDOT = 0

CCSDS_OMM_VERS = 2.0
CREATION_DATE  = 
ORIGINATOR     = 

OBJECT_NAME    = UNKNOWN
OBJECT_ID      = 
CENTER_NAME    = EARTH
REF_FRAME      = TEME
TIME_SYSTEM    = UTC
MEAN_ELEMENT_THEORY = SGP/SGP4

EPOCH          = 2026-02-17T06:30:23.802048
MEAN_MOTION    = 11.22475388
ECCENTRICITY   = .0191832
INCLINATION    = 65.1105
RA_OF_ASC_NODE = 153.8460
ARG_OF_PERICENTER = 348.1361
MEAN_ANOMALY   = 40.1331

EPHEMERIS_TYPE = 0
CLASSIFICATION_TYPE = U
NORAD_CAT_ID   = 81078
ELEMENT_SET_NO = 999
REV_AT_EPOCH   = 50209
BSTAR          = .12039E-1
MEAN_MOTION_DOT = .365E-5
MEAN_MOTION_DDOT = 0

CCSDS_OMM_VERS = 2.0
CREATION_DATE  = 
ORIGINATOR     = 

OBJECT_NAME    = UNKNOWN
OBJECT_ID      = 
CENTER_NAME    = EARTH
REF_FRAME      = TEME
TIME_SYSTEM    = UTC
MEAN_ELEMENT_THEORY = SGP/SGP4

EPOCH          = 2026-03-06T14:43:32.884320
MEAN_MOTION    = 7.58534856
ECCENTRICITY   = .3847396
INCLINATION    = 62.8818
RA_OF_ASC_NODE = 300.2744
ARG_OF_PERICENTER = 0.5468
MEAN_ANOMALY   = 359.8100

EPHEMERIS_TYPE = 0
CLASSIFICATION_TYPE = U
NORAD_CAT_ID   = 81111
ELEMENT_SET_NO = 999
REV_AT_EPOCH   = 27829
BSTAR          = .30384E-2
MEAN_MOTION_DOT = .15112E-3
MEAN_MOTION_DDOT = 0

CCSDS_OMM_VERS = 2.0
CREATION_DATE  = 
ORIGINATOR     = 

OBJECT_NAME    = UNKNOWN
OBJECT_ID      = 
CENTER_NAME    = EARTH
REF_FRAME      = TEME
TIME_SYSTEM    = UTC
MEAN_ELEMENT_THEORY = SGP/SGP4

EPOCH          = 2026-03-02T01:09:55.267776
MEAN_MOTION    = 13.81794289
ECCENTRICITY   = .0004185
INCLINATION    = 99.9641
RA_OF_ASC_NODE = 152.0911
ARG_OF_PERICENTER = 201.2439
MEAN_ANOMALY   = 158.8539

EPHEMERIS_TYPE = 0
CLASSIFICATION_TYPE = U
NORAD_CAT_ID   = 81123
ELEMENT_SET_NO = 999
REV_AT_EPOCH   = 61723
BSTAR          = .1132E-2
MEAN_MOTION_DOT = .1163E-4
MEAN_MOTION_DDOT = 0

CCSDS_OMM_VERS = 2.0
CREATION_DATE  = 
ORIGINATOR     = 

OBJECT_NAME    = UNKNOWN
OBJECT_ID      = 
CENTER_NAME    = EARTH
REF_FRAME      = TEME
TIME_SYSTEM    = UTC
MEAN_ELEMENT_THEORY = SGP/SGP4

EPOCH          = 2026-03-05T06:39:03.680352
MEAN_MOTION    = 12.93017594
ECCENTRICITY   = .0024566
INCLINATION    = 90.2548
RA_OF_ASC_NODE = 5.8953
ARG_OF_PERICENTER = 167.7731
MEAN_ANOMALY   = 192.3989

EPHEMERIS_TYPE = 0
CLASSIFICATION_TYPE = U
NORAD_CAT_ID   = 81134
ELEMENT_SET_NO = 999
REV_AT_EPOCH   = 47327
BSTAR          = .1301E-2
MEAN_MOTION_DOT = .362E-5
MEAN_MOTION_DDOT = 0

CCSDS_OMM_VERS = 2.0
CREATION_DATE  = 
ORIGINATOR     = 

OBJECT_NAME    = UNKNOWN
OBJECT_ID      = 
CENTER_NAME    = EARTH
REF_FRAME      = TEME
TIME_SYSTEM    = UTC
MEAN_ELEMENT_THEORY = SGP/SGP4

EPOCH          = 2026-02-17T19:40:08.722560
MEAN_MOTION    = 13.75735350
ECCENTRICITY   = .0059845
INCLINATION    = 100.3950
RA_OF_ASC_NODE = 261.9225
ARG_OF_PERICENTER = 108.2143
MEAN_ANOMALY   = 252.5529

EPHEMERIS_TYPE = 0
CLASSIFICATION_TYPE = U
NORAD_CAT_ID   = 81161
ELEMENT_SET_NO = 999
REV_AT_EPOCH   = 56535
BSTAR          = .71615E-3
MEAN_MOTION_DOT = .65E-5
MEAN_MOTION_DDOT = 0

CCSDS_OMM_VERS = 2.0
CREATION_DATE  = 
ORIGINATOR     = 

OBJECT_NAME    = UNKNOWN
OBJECT_ID      = 
CENTER_NAME    = EARTH
REF_FRAME      = TEME
TIME_SYSTEM    = UTC
MEAN_ELEMENT_THEORY = SGP/SGP4

EPOCH          = 2026-03-06T09:49:41.217312
MEAN_MOTION    = 13.81884643
ECCENTRICITY   = .0021691
INCLINATION    = 82.9250
RA_OF_ASC_NODE = 303.2965
ARG_OF_PERICENTER = 343.1433
MEAN_ANOMALY   = 16.9004

EPHEMERIS_TYPE = 0
CLASSIFICATION_TYPE = U
NORAD_CAT_ID   = 81219
ELEMENT_SET_NO = 999
REV_AT_EPOCH   = 61907
BSTAR          = .60648E-3
MEAN_MOTION_DOT = .666E-5
MEAN_MOTION_DDOT = 0

CCSDS_OMM_VERS = 2.0
CREATION_DATE  = 
ORIGINATOR     = 

OBJECT_NAME    = UNKNOWN
OBJECT_ID      = 
CENTER_NAME    = EARTH
REF_FRAME      = TEME
TIME_SYSTEM    = UTC
MEAN_ELEMENT_THEORY = SGP/SGP4

EPOCH          = 2026-03-01T10:34:57.778464
MEAN_MOTION    = 14.42030798
ECCENTRICITY   = .0064872
INCLINATION    = 70.5185
RA_OF_ASC_NODE = 99.9550
ARG_OF_PERICENTER = 247.2635
MEAN_ANOMALY   = 112.1634

EPHEMERIS_TYPE = 0
CLASSIFICATION_TYPE = U
NORAD_CAT_ID   = 81228
ELEMENT_SET_NO = 999
REV_AT_EPOCH   = 63743
BSTAR          = .2107E-2
MEAN_MOTION_DOT = .7049E-4
MEAN_MOTION_DDOT = 0

CCSDS_OMM_VERS = 2.0
CREATION_DATE  = 
ORIGINATOR     = 

OBJECT_NAME    = UNKNOWN
OBJECT_ID      = 
CENTER_NAME    = EARTH
REF_FRAME      = TEME
TIME_SYSTEM    = UTC
MEAN_ELEMENT_THEORY = SGP/SGP4

EPOCH          = 2026-03-06T04:15:07.843968
MEAN_MOTION    = 14.02197482
ECCENTRICITY   = .007538
INCLINATION    = 100.3810
RA_OF_ASC_NODE = 143.7237
ARG_OF_PERICENTER = 209.3040
MEAN_ANOMALY   = 150.3883

EPHEMERIS_TYPE = 0
CLASSIFICATION_TYPE = U
NORAD_CAT_ID   = 81254
ELEMENT_SET_NO = 999
REV_AT_EPOCH   = 62458
BSTAR          = .23499E-2
MEAN_MOTION_DOT = .3633E-4
MEAN_MOTION_DDOT = 0

CCSDS_OMM_VERS = 2.0
CREATION_DATE  = 
ORIGINATOR     = 

OBJECT_NAME    = UNKNOWN
OBJECT_ID      = 
CENTER_NAME    = EARTH
REF_FRAME      = TEME
TIME_SYSTEM    = UTC
MEAN_ELEMENT_THEORY = SGP/SGP4

EPOCH          = 2026-03-06T14:57:27.288000
MEAN_MOTION    = 14.20189676
ECCENTRICITY   = .0207967
INCLINATION    = 98.1157
RA_OF_ASC_NODE = 123.2845
ARG_OF_PERICENTER = 139.0602
MEAN_ANOMALY   = 222.6404

EPHEMERIS_TYPE = 0
CLASSIFICATION_TYPE = U
NORAD_CAT_ID   = 81279
ELEMENT_SET_NO = 999
REV_AT_EPOCH   = 47450
BSTAR          = .63694E-3
MEAN_MOTION_DOT = .165E-4
MEAN_MOTION_DDOT = 0

